start=new Date('2022-06-29T00:00:00.000Z').valueOf();
sats=[{"RCS_SIZE":"LARGE","OBJECT_NAME":"STARLINK-3257","MEAN_ANOMALY":"308.6436","LAUNCH_DATE":"2021-12-18","TLE_LINE1":"1 50203U 21125AZ  22179.70890478 -.00001058  00000-0 -48393-4 0  9992","OBJECT_TYPE":"PAYLOAD","GP_ID":"207037584","TLE_LINE2":"2 50203  53.2172 179.4267 0002027  51.4737 308.6436 15.08834476 29856","SEMIMAJOR_AXIS":"6917.897","INCLINATION":"53.2172","REV_AT_EPOCH":"2985","APOAPSIS":"541.165","PERIOD":"95.438","NORAD_CAT_ID":"50203","BSTAR":"-0.00004839300000","COUNTRY_CODE":"US","DECAY_DATE":null,"TIME_SYSTEM":"UTC","ELEMENT_SET_NO":"999","MEAN_MOTION_DOT":"-0.00001058","RA_OF_ASC_NODE":"179.4267","SITE":"AFWTR","ARG_OF_PERICENTER":"51.4737","FILE":"3504921","OBJECT_ID":"2021-125AZ","CLASSIFICATION_TYPE":"U","CENTER_NAME":"EARTH","MEAN_MOTION_DDOT":"0.0000000000000","EPOCH":"2022-06-28T17:00:49.372992","ECCENTRICITY":"0.00020270","REF_FRAME":"TEME","PERIAPSIS":"538.360","EPHEMERIS_TYPE":"0","MEAN_ELEMENT_THEORY":"SGP4","MEAN_MOTION":"15.08834476"},{"CENTER_NAME":"EARTH","CLASSIFICATION_TYPE":"U","MEAN_MOTION_DDOT":"0.0000000000000","FILE":"3504942","OBJECT_ID":"2021-125BA","ARG_OF_PERICENTER":"40.9082","MEAN_MOTION_DOT":"0.00000659","SITE":"AFWTR","RA_OF_ASC_NODE":"179.5035","ELEMENT_SET_NO":"999","TIME_SYSTEM":"UTC","MEAN_ELEMENT_THEORY":"SGP4","MEAN_MOTION":"15.08837419","EPHEMERIS_TYPE":"0","REF_FRAME":"TEME","PERIAPSIS":"538.035","ECCENTRICITY":"0.00024840","EPOCH":"2022-06-28T16:34:19.536960","INCLINATION":"53.2184","GP_ID":"207061067","TLE_LINE2":"2 50204  53.2184 179.5035 0002484  40.9082 319.2097 15.08837419 32986","SEMIMAJOR_AXIS":"6917.888","LAUNCH_DATE":"2021-12-18","TLE_LINE1":"1 50204U 21125BA  22179.69050390  .00000659  00000-0  59529-4 0  9999","OBJECT_TYPE":"PAYLOAD","MEAN_ANOMALY":"319.2097","RCS_SIZE":"LARGE","OBJECT_NAME":"STARLINK-3254","COUNTRY_CODE":"US","DECAY_DATE":null,"NORAD_CAT_ID":"50204","BSTAR":"0.00005952900000","PERIOD":"95.438","REV_AT_EPOCH":"3298","APOAPSIS":"541.472"},{"SITE":"AFWTR","RA_OF_ASC_NODE":"148.0957","MEAN_MOTION_DOT":"-0.00017017","ELEMENT_SET_NO":"999","TIME_SYSTEM":"UTC","MEAN_MOTION_DDOT":"0.0000000000000","CENTER_NAME":"EARTH","CLASSIFICATION_TYPE":"U","OBJECT_ID":"2021-125BB","FILE":"3504942","ARG_OF_PERICENTER":"55.5052","ECCENTRICITY":"0.00025220","EPOCH":"2022-06-29T00:00:00.999648","MEAN_MOTION":"15.08829696","MEAN_ELEMENT_THEORY":"SGP4","EPHEMERIS_TYPE":"0","PERIAPSIS":"538.032","REF_FRAME":"TEME","SEMIMAJOR_AXIS":"6917.912","TLE_LINE2":"2 50205  53.2157 148.0957 0002522  55.5052 146.5845 15.08829696  1305","GP_ID":"207061820","TLE_LINE1":"1 50205U 21125BB  22180.00001157 -.00017017  00000-0 -10538-2 0  9997","OBJECT_TYPE":"PAYLOAD","LAUNCH_DATE":"2021-12-18","MEAN_ANOMALY":"146.5845","OBJECT_NAME":"STARLINK-3260","RCS_SIZE":"LARGE","INCLINATION":"53.2157","APOAPSIS":"541.522","REV_AT_EPOCH":"130","DECAY_DATE":null,"COUNTRY_CODE":"US","BSTAR":"-0.00105380000000","NORAD_CAT_ID":"50205","PERIOD":"95.438"},{"ECCENTRICITY":"0.00023170","EPOCH":"2022-06-28T16:39:36.577440","REF_FRAME":"TEME","PERIAPSIS":"538.148","MEAN_MOTION":"15.08838351","MEAN_ELEMENT_THEORY":"SGP4","EPHEMERIS_TYPE":"0","ELEMENT_SET_NO":"999","TIME_SYSTEM":"UTC","SITE":"AFWTR","RA_OF_ASC_NODE":"179.4845","MEAN_MOTION_DOT":"-0.00000734","ARG_OF_PERICENTER":"42.8396","MEAN_MOTION_DDOT":"0.0000000000000","CLASSIFICATION_TYPE":"U","CENTER_NAME":"EARTH","OBJECT_ID":"2021-125BC","FILE":"3504921","APOAPSIS":"541.353","REV_AT_EPOCH":"3085","PERIOD":"95.438","DECAY_DATE":null,"COUNTRY_CODE":"US","BSTAR":"-0.00002798400000","NORAD_CAT_ID":"50206","MEAN_ANOMALY":"317.2776","OBJECT_NAME":"STARLINK-3258","RCS_SIZE":"LARGE","SEMIMAJOR_AXIS":"6917.885","TLE_LINE2":"2 50206  53.2177 179.4845 0002317  42.8396 317.2776 15.08838351 30854","GP_ID":"207037695","TLE_LINE1":"1 50206U 21125BC  22179.69417335 -.00000734  00000-0 -27984-4 0  9993","OBJECT_TYPE":"PAYLOAD","LAUNCH_DATE":"2021-12-18","INCLINATION":"53.2177"},{"OBJECT_TYPE":"PAYLOAD","TLE_LINE1":"1 50207U 21125BD  22179.69785091  .00000471  00000-0  47701-4 0  9996","LAUNCH_DATE":"2021-12-18","SEMIMAJOR_AXIS":"6917.884","TLE_LINE2":"2 50207  53.2177 179.4658 0002503  42.7380 317.3807 15.08838660 30923","GP_ID":"207037701","OBJECT_NAME":"STARLINK-3262","RCS_SIZE":"LARGE","MEAN_ANOMALY":"317.3807","INCLINATION":"53.2177","APOAPSIS":"541.481","REV_AT_EPOCH":"3092","BSTAR":"0.00004770100000","NORAD_CAT_ID":"50207","DECAY_DATE":null,"COUNTRY_CODE":"US","PERIOD":"95.438","SITE":"AFWTR","RA_OF_ASC_NODE":"179.4658","MEAN_MOTION_DOT":"0.00000471","TIME_SYSTEM":"UTC","ELEMENT_SET_NO":"999","OBJECT_ID":"2021-125BD","FILE":"3504921","MEAN_MOTION_DDOT":"0.0000000000000","CLASSIFICATION_TYPE":"U","CENTER_NAME":"EARTH","ARG_OF_PERICENTER":"42.7380","EPOCH":"2022-06-28T16:44:54.318624","ECCENTRICITY":"0.00025030","EPHEMERIS_TYPE":"0","MEAN_MOTION":"15.08838660","MEAN_ELEMENT_THEORY":"SGP4","PERIAPSIS":"538.018","REF_FRAME":"TEME"},{"SITE":"AFETR","RA_OF_ASC_NODE":"108.9349","MEAN_MOTION_DOT":"-0.00000534","TIME_SYSTEM":"UTC","ELEMENT_SET_NO":"999","OBJECT_ID":"2022-001A","FILE":"3504942","MEAN_MOTION_DDOT":"0.0000000000000","CLASSIFICATION_TYPE":"U","CENTER_NAME":"EARTH","ARG_OF_PERICENTER":"56.0226","EPOCH":"2022-06-28T19:33:09.619488","ECCENTRICITY":"0.00027090","EPHEMERIS_TYPE":"0","MEAN_MOTION":"15.08838061","MEAN_ELEMENT_THEORY":"SGP4","REF_FRAME":"TEME","PERIAPSIS":"537.877","TLE_LINE1":"1 50803U 22001A   22179.81469467 -.00000534  00000-0 -15409-4 0  9994","OBJECT_TYPE":"PAYLOAD","LAUNCH_DATE":"2022-01-06","TLE_LINE2":"2 50803  53.2173 108.9349 0002709  56.0226 304.1023 15.08838061 26621","SEMIMAJOR_AXIS":"6917.886","GP_ID":"207062098","OBJECT_NAME":"STARLINK-3321","RCS_SIZE":"LARGE","MEAN_ANOMALY":"304.1023","INCLINATION":"53.2173","APOAPSIS":"541.625","REV_AT_EPOCH":"2662","BSTAR":"-0.00001540900000","NORAD_CAT_ID":"50803","DECAY_DATE":null,"COUNTRY_CODE":"US","PERIOD":"95.438"},{"ELEMENT_SET_NO":"999","TIME_SYSTEM":"UTC","RA_OF_ASC_NODE":"99.3805","SITE":"AFETR","MEAN_MOTION_DOT":"-0.00000989","ARG_OF_PERICENTER":"58.0431","MEAN_MOTION_DDOT":"0.0000000000000","CENTER_NAME":"EARTH","CLASSIFICATION_TYPE":"U","OBJECT_ID":"2022-001B","FILE":"3504942","ECCENTRICITY":"0.00020240","EPOCH":"2022-06-28T17:11:24.624672","REF_FRAME":"TEME","PERIAPSIS":"538.368","MEAN_ELEMENT_THEORY":"SGP4","MEAN_MOTION":"15.08832462","EPHEMERIS_TYPE":"0","MEAN_ANOMALY":"302.0758","OBJECT_NAME":"STARLINK-3323","RCS_SIZE":"LARGE","SEMIMAJOR_AXIS":"6917.903","TLE_LINE2":"2 50804  53.2189  99.3805 0002024  58.0431 302.0758 15.08832462 26743","GP_ID":"207060354","TLE_LINE1":"1 50804U 22001B   22179.71625723 -.00000989  00000-0 -44030-4 0  9999","OBJECT_TYPE":"PAYLOAD","LAUNCH_DATE":"2022-01-06","INCLINATION":"53.2189","APOAPSIS":"541.169","REV_AT_EPOCH":"2674","PERIOD":"95.438","DECAY_DATE":null,"COUNTRY_CODE":"US","BSTAR":"-0.00004403000000","NORAD_CAT_ID":"50804"},{"INCLINATION":"53.2176","RCS_SIZE":"LARGE","OBJECT_NAME":"STARLINK-3333","MEAN_ANOMALY":"291.7525","LAUNCH_DATE":"2022-01-06","OBJECT_TYPE":"PAYLOAD","TLE_LINE1":"1 50805U 22001C   22179.84505420 -.00002674  00000-0 -14985-3 0  9993","GP_ID":"207061102","SEMIMAJOR_AXIS":"6917.841","TLE_LINE2":"2 50805  53.2176  98.8039 0002657  68.3750 291.7525 15.08852825 26766","PERIOD":"95.437","NORAD_CAT_ID":"50805","BSTAR":"-0.00014985000000","COUNTRY_CODE":"US","DECAY_DATE":null,"REV_AT_EPOCH":"2676","APOAPSIS":"541.544","ARG_OF_PERICENTER":"68.3750","FILE":"3504942","OBJECT_ID":"2022-001C","CLASSIFICATION_TYPE":"U","CENTER_NAME":"EARTH","MEAN_MOTION_DDOT":"0.0000000000000","TIME_SYSTEM":"UTC","ELEMENT_SET_NO":"999","MEAN_MOTION_DOT":"-0.00002674","RA_OF_ASC_NODE":"98.8039","SITE":"AFETR","PERIAPSIS":"537.868","REF_FRAME":"TEME","EPHEMERIS_TYPE":"0","MEAN_ELEMENT_THEORY":"SGP4","MEAN_MOTION":"15.08852825","EPOCH":"2022-06-28T20:16:52.682880","ECCENTRICITY":"0.00026570"},{"PERIAPSIS":"538.190","REF_FRAME":"TEME","MEAN_MOTION":"15.08833829","MEAN_ELEMENT_THEORY":"SGP4","EPHEMERIS_TYPE":"0","ECCENTRICITY":"0.00022760","EPOCH":"2022-06-28T18:36:12.480480","ARG_OF_PERICENTER":"58.5411","MEAN_MOTION_DDOT":"0.0000000000000","CENTER_NAME":"EARTH","CLASSIFICATION_TYPE":"U","OBJECT_ID":"2022-001D","FILE":"3504942","ELEMENT_SET_NO":"999","TIME_SYSTEM":"UTC","SITE":"AFETR","RA_OF_ASC_NODE":"99.1186","MEAN_MOTION_DOT":"-0.00001491","PERIOD":"95.438","DECAY_DATE":null,"COUNTRY_CODE":"US","BSTAR":"-0.00007557400000","NORAD_CAT_ID":"50806","APOAPSIS":"541.339","REV_AT_EPOCH":"2675","INCLINATION":"53.2169","MEAN_ANOMALY":"301.5803","OBJECT_NAME":"STARLINK-3335","RCS_SIZE":"LARGE","TLE_LINE2":"2 50806  53.2169  99.1186 0002276  58.5411 301.5803 15.08833829 26759","SEMIMAJOR_AXIS":"6917.899","GP_ID":"207061855","TLE_LINE1":"1 50806U 22001D   22179.77514445 -.00001491  00000-0 -75574-4 0  9991","OBJECT_TYPE":"PAYLOAD","LAUNCH_DATE":"2022-01-06"},{"MEAN_MOTION":"15.08835340","MEAN_ELEMENT_THEORY":"SGP4","EPHEMERIS_TYPE":"0","REF_FRAME":"TEME","PERIAPSIS":"538.190","ECCENTRICITY":"0.00022690","EPOCH":"2022-06-28T18:15:00.796896","MEAN_MOTION_DDOT":"0.0000000000000","CLASSIFICATION_TYPE":"U","CENTER_NAME":"EARTH","OBJECT_ID":"2022-001E","FILE":"3504942","ARG_OF_PERICENTER":"63.2681","RA_OF_ASC_NODE":"99.1999","SITE":"AFETR","MEAN_MOTION_DOT":"-0.00000811","ELEMENT_SET_NO":"999","TIME_SYSTEM":"UTC","DECAY_DATE":null,"COUNTRY_CODE":"US","BSTAR":"-0.00003287300000","NORAD_CAT_ID":"50807","PERIOD":"95.438","APOAPSIS":"541.329","REV_AT_EPOCH":"2675","INCLINATION":"53.2196","SEMIMAJOR_AXIS":"6917.895","TLE_LINE2":"2 50807  53.2196  99.1999 0002269  63.2681 296.8543 15.08835340 26753","GP_ID":"207061598","OBJECT_TYPE":"PAYLOAD","TLE_LINE1":"1 50807U 22001E   22179.76042589 -.00000811  00000-0 -32873-4 0  9996","LAUNCH_DATE":"2022-01-06","MEAN_ANOMALY":"296.8543","OBJECT_NAME":"STARLINK-3353","RCS_SIZE":"LARGE"}];
